1 35349U 01049QH  15145.25838526  .00016085  00000-0  10516-2 0  9998
2 35349 097.5507 147.6920 0033387 167.5592 192.3922 15.07407758469648
1 35350U 01049QJ  15148.08095057  .00000846  00000-0  24077-3 0  9994
2 35350 098.3097 106.7353 0076687 055.5257 007.0342 14.46115588620616
1 35351U 01049QK  15146.37997722  .00001018  00000-0  33161-3 0  9991
2 35351 098.8693 355.3446 0002899 220.4613 139.6359 14.40980762622443
1 35354U 93014BD  15128.82986024  .00026179  00000-0  46119-2 0  9991
2 35354 075.7410 179.5700 0082899 105.8588 238.0664 14.65186916478405
1 35356U 93014BF  15145.78244599  .00015240  00000-0  28619-2 0  9993
2 35356 075.7802 179.4703 0085198 098.3840 262.7624 14.62327953464721
1 35359U 93014BJ  15148.42410287  .00007040  00000-0  13415-2 0  9996
2 35359 075.7491 181.8755 0075571 102.2188 258.7465 14.62278793410823
1 35360U 93014BK  15145.67010191  .00011543  00000-0  20670-2 0  9996
2 35360 075.7209 154.7077 0090774 073.1908 287.8626 14.64152448432990
1 35361U 93014BL  15147.78698801  .00024056  00000-0  23083-2 0  9995
2 35361 075.7352 066.7847 0047290 286.3936 103.5634 14.92152441473016
1 35362U 09032A   15147.78693315 -.00000244  00000-0  00000+0 0  9993
2 35362 000.0322 200.9216 0000102 112.5593 306.3387 01.00271116 21740
1 35363U 09032B   15147.78709323 -.00000102  00000-0  00000+0 0  9994
2 35363 010.4264 086.7948 4051854 298.5853 285.3265 01.68698546 36540
1 35364U 88005Y   15147.11187882  .00001637  00000-0  12728-2 0  9995
2 35364 082.5587 289.7173 0010440 129.7796 230.2727 13.91909023387474
1 35365U 88005Z   15146.09583443  .00001689  00000-0  13543-2 0  9998
2 35365 082.5127 290.6337 0011280 224.9216 135.1073 13.90161433369758
1 35366U 88005AA  15147.16834670  .00001036  00000-0  81382-3 0  9992
2 35366 082.5419 293.3027 0012977 224.6665 260.3795 13.91031452347114
1 35368U 88005AC  15148.12220084  .00001281  00000-0  94876-3 0  9993
2 35368 082.5657 289.8685 0027461 204.5087 279.4634 13.94383762414721
1 35369U 88005AD  15145.14379428  .00002285  00000-0  18629-2 0  9996
2 35369 082.5395 296.4638 0016450 283.1877 076.7744 13.89304213417382
1 35370U 88005AE  15148.10065108  .00000469  00000-0  36619-3 0  9996
2 35370 082.5226 286.1529 0030806 248.0362 237.1421 13.90142204402552
1 35371U 88005AF  15148.11796475  .00001652  00000-0  12756-2 0  9996
2 35371 082.5146 279.8489 0014244 259.9872 224.7791 13.92301594412524
1 35372U 88005AG  15148.13540715  .00001293  00000-0  10609-2 0  9999
2 35372 082.5328 299.3250 0015313 240.7366 242.8239 13.88678857402413
1 35373U 88005AH  15147.10477098  .00001876  00000-0  14973-2 0  9994
2 35373 082.5263 287.1139 0008438 265.5454 094.4707 13.90488582325058
1 35374U 06046G   15148.02822558  .00004162  00000-0  18553-3 0  9997
2 35374 097.5203 163.0425 0066830 030.0152 022.2653 15.19970750469974
1 35375U 06046H   15148.19470201  .00001316  00000-0  11462-3 0  9990
2 35375 097.8227 133.4107 0031925 279.6359 141.1785 14.98331441465381
1 35376U 06046J   15147.84148314  .00001325  00000-0  27411-3 0  9990
2 35376 097.7701 275.5512 0203058 281.6053 234.5536 14.49790301450697
1 35378U 06046L   15148.49152563  .00002572  00000-0  46599-3 0  9998
2 35378 097.7465 338.5454 0179187 188.7999 171.0048 14.57200214447701
1 35379U 03049F   15147.77024612  .00000285  00000-0  24010-3 0  9995
2 35379 099.0358 076.4133 0179556 064.0765 327.0038 13.88297787568572
1 35380U 03049G   15147.45131052  .00006033  00000-0  74822-3 0  9992
2 35380 098.0259 224.1453 0047633 033.9496 027.3470 14.82221640480726
1 35381U 03049H   15147.71000623  .00001754  00000-0  33342-3 0  9998
2 35381 098.5950 051.1709 0102096 305.8451 082.2149 14.62282324605589
1 35382U 03049J   15147.77169428  .00000411  00000-0  20089-3 0  9997
2 35382 098.6457 080.7949 0155395 277.1316 081.2213 14.17097433580799
1 35383U 03049K   15147.86315083  .00000111  00000-0  36663-4 0  9991
2 35383 098.6210 004.3088 0050514 314.7497 110.8168 14.55732839602362
1 35384U 99057SP  15146.73797192  .00011320  00000-0  16036-2 0  9990
2 35384 098.2665 136.3022 0005242 344.0594 016.0450 14.77203579400836
1 35386U 99057SR  15140.45655405  .00455583  00000-0  12361-1 0  9994
2 35386 098.2048 130.9445 0018716 131.3368 019.7222 15.35599634392065
1 35387U 99057SS  15148.10886667  .00001915  00000-0  55379-3 0  9995
2 35387 098.3401 099.0157 0005193 020.6934 038.0904 14.45630677383445
1 35391U 95021E   15148.02090416  .00000752  00000-0  27604-3 0  9995
2 35391 098.2180 158.7167 0006064 003.3721 052.5354 14.35411672416906
1 35392U 95021F   15148.10515117  .00000829  00000-0  28698-3 0  9994
2 35392 098.3315 209.3339 0004979 106.8661 312.2160 14.38158433387125
1 35393U 95021G   15148.56461133  .00000760  00000-0  25444-3 0  9993
2 35393 098.1635 170.1115 0003745 293.3123 196.3843 14.40001683619530
1 35397U 07042E   15147.30172395  .00001102  00000-0  23167-3 0  9994
2 35397 098.7379 335.3596 0112984 020.5776 339.9919 14.57917332393604
1 35398U 07042F   15145.82313749  .00002634  00000-0  31791-3 0  9993
2 35398 098.5577 010.8048 0107363 156.5854 266.5829 14.80724396410250
1 35401U 93041E   15148.57119211  .00002743  00000-0  59056-3 0  9990
2 35401 089.5203 256.1111 0056818 147.3681 213.1063 14.57252867638984
1 35404U 02024J   15147.14472375  .00000021  00000-0  30565-4 0  9991
2 35404 098.7532 112.0167 0051653 241.9577 181.4706 14.19316442668906
1 35405U 02024K   15146.16695696  .00000439  00000-0  23838-3 0  9993
2 35405 098.8269 116.4665 0128801 070.5613 354.7032 14.13066113667405
1 35406U 82116F   15146.18762895  .00008500  00000-0  28257-2 0  9998
2 35406 081.2440 323.6843 0060885 274.3297 084.8554 14.36586253387037
1 35407U 82116G   15146.79230590  .00004018  00000-0  13254-2 0  9999
2 35407 081.2378 314.4111 0044699 226.6401 197.3101 14.37397849443208
1 35408U 86019FL  15148.15961199  .00000223  00000-0  11224-3 0  9994
2 35408 098.7903 211.5700 0034166 090.5470 324.6162 14.25668266431917
1 35413U 06029F   15148.56854433  .00003436  00000-0  15053-3 0  9993
2 35413 064.5099 126.8428 0034319 269.2014 196.7794 15.23393973665900
1 35414U 01055F   15147.55559117  .00001439  00000-0  47135-2 0  9993
2 35414 066.0247 302.9941 0064996 132.6750 302.5755 13.03357654624512
1 35415U 00047D   15148.02612744  .00000167  00000-0  28596-4 0  9992
2 35415 067.9951 132.1642 0059521 072.1555 288.6065 14.90305887480230
1 35416U 68012F   15147.86705590  .00000644  00000-0  92928-3 0  9991
2 35416 089.9555 278.3920 0073512 156.0378 321.2763 13.53418181307213
1 35417U 04012L   15147.34983661  .00004832  00000-0  68387-3 0  9997
2 35417 097.8821 047.3405 0117346 002.8604 062.4691 14.72877863513406
1 35418U 06002Z   15146.55909411  .00000786  00000-0  15479-3 0  9990
2 35418 097.8377 170.7575 0001586 092.9022 028.4192 14.65065852440657
1 35419U 91082CM  15148.33826188  .00013329  00000-0  26882-2 0  9996
2 35419 098.4788 093.1956 0042191 193.2170 318.5579 14.61017392567629
1 35420U 01056M   15146.55323440  .00000205  00000-0  26071-3 0  9995
2 35420 099.1158 352.4534 0026064 100.1600 315.8302 13.74394950671530
1 35422U 75124D   15148.08508424  .00002285  00000-0  98683-3 0  9999
2 35422 081.2411 077.7081 0016441 139.0906 279.1498 14.24098279457708
1 35423U 77002F   15146.32361049  .00001683  00000-0  89402-3 0  9992
2 35423 081.2601 001.6417 0012458 145.1290 215.0701 14.13109639421592
1 35424U 81043M   15147.03078895  .00002202  00000-0  98525-3 0  9990
2 35424 081.2627 046.3311 0048813 015.2040 345.0927 14.21692971349121
1 35426U 80073J   15147.40816152  .00001796  00000-0  72369-3 0  9996
2 35426 081.2155 023.0126 0029172 287.7544 191.8003 14.27466452516416
1 35428U 04045D   15145.15423968 -.00000236  36674-6  00000+0 0  9992
2 35428 038.9361 064.1411 4087547 104.6580 013.6422 07.42188869175981
1 35429U 93036AJX 15145.69187199  .00006387  00000-0  47111-3 0  9991
2 35429 073.9532 231.4644 0143418 008.5108 142.3071 14.95545244329062
1 35430U 93036AJY 15147.76820171  .00014286  00000-0  13844-2 0  9999
2 35430 074.0343 306.1240 0030711 330.1278 029.8151 14.92366753326744
1 35431U 93036AJZ 15147.41155496  .00005443  00000-0  10260-2 0  9997
2 35431 074.0213 052.2116 0017893 058.4914 301.7999 14.64659882319320
1 35432U 93036AKA 15148.59933019  .00001896  00000-0  55018-3 0  9992
2 35432 074.0487 113.0983 0012958 006.9994 113.2514 14.45014027315561
1 35433U 93036AKB 15148.37121705  .00000300  00000-0  12375-3 0  9998
2 35433 074.0340 162.6041 0027361 071.4925 350.3859 14.30859086316170
1 35434U 93036AKC 15147.68351619  .00000580  00000-0  28325-3 0  9993
2 35434 074.0438 260.5423 0096200 172.6401 187.6182 14.17762627319242
1 35435U 93036AKD 15148.34884528  .00001702  00000-0  53656-3 0  9990
2 35435 074.0236 126.0317 0022548 069.7941 000.5187 14.40951419318451
1 35439U 93036AKH 15147.07335808  .00000879  00000-0  65971-3 0  9992
2 35439 074.0247 152.6345 0271420 091.6269 326.7824 13.79756772308967
1 35440U 93036AKJ 15148.26100785  .00000665  00000-0  14944-3 0  9997
2 35440 074.0232 357.3509 0083428 017.7021 101.8273 14.56460716321357
1 35441U 93036AKK 15147.50762825  .00001270  00000-0  44160-3 0  9999
2 35441 074.1441 189.4552 0055415 060.3871 006.4388 14.35571815319999
1 35442U 93036AKL 15147.39433402  .00001397  00000-0  43704-3 0  9996
2 35442 074.0434 129.9495 0013280 042.1326 110.4644 14.41582181316772
1 35443U 93036AKM 15146.94907126  .00002904  00000-0  93208-3 0  9995
2 35443 074.0126 249.7919 0229493 224.3877 133.8677 14.25965876318363
1 35444U 93036AKN 15147.10405356  .00013340  00000-0  50501-3 0  9998
2 35444 073.9170 062.2389 0100370 149.8994 271.8115 15.22265425327016
1 35445U 93036AKP 15147.56993617  .00001454  00000-0  43737-3 0  9997
2 35445 074.0466 193.9511 0210909 152.7876 359.3940 14.31433028320430
1 35446U 93036AKQ 15147.63307856  .00000176  00000-0  49000-4 0  9990
2 35446 074.0485 018.7217 0078494 033.6245 357.1859 14.51986081320863
1 35448U 93036AKS 15147.86525110  .00001045  00000-0  34628-3 0  9997
2 35448 073.9099 095.7900 0014527 352.1427 038.8944 14.39123585318397
